#dP2023  5 10  0  0  0.00000000     289 ORBIT ITRF  BHN ESOC                    
## 2261 259200.00000000   300.00000000 60074 0.0000000000000                    
+  117   G22G13G21G07G05G20G31G17G15G16G29G12G19G02G25G01G30                    
+        G24G27G06G09G03G32G26G08G10G04G18G23G14G11G28R09R11                    
+        R22R20R19R13R01R08R03R07R02R17R14R18R21R05R15R12R04                    
+        R24R16E11E12E19E18E14E26E24E30E08E09E02E07E04E05E21                    
+        E25E27E31E36E13E15E33E34E10C11C12C14C19C20C27C28C22                    
+        C21C29C30C23C24C26C25C32C33C35C34C36C37C46C45C44C43                    
+        C41C42C06C07C08C09C10C13C16C38C39C40J02J03J04  0  0                    
++         4  4  5  4  5  5  4  5  4  5  4  5  5  5  5  4  5                    
++         5  4  5  4  5  4  4  5  5  4  5  5  5  5  4  6  5                    
++         8  6  6  6  5  5  5  5  5  5  5  5  5  5  7  7  5                    
++         5  6  5  5  5  5  5  5  5  5  4  4  5  4  4  5  5                    
++         5  5  5  5  5  5  5  5  5  5  5  5  5  5  5  5  5                    
++         5  5  5  5  5  5  5  5  5  5  5  5  5  5  5  5  5                    
++         5  4  6  6  6  6  6  6  6  8  6  8  6  7  7  0  0                    
%c M  cc GPS ccc cccc cccc cccc cccc ccccc ccccc ccccc ccccc                    
%c cc cc ccc ccc cccc cccc cccc cccc ccccc ccccc ccccc ccccc                    
%f  0.0000000  0.000000000  0.00000000000  0.000000000000000                    
%f  0.0000000  0.000000000  0.00000000000  0.000000000000000                    
%i    0    0    0    0      0      0      0      0         0                    
%i    0    0    0    0      0      0      0      0         0                    
/* CCCCCCCCCCCCCCCCCCCCCCCCCCCCCCCCCCCCCCCCCCCCCCCCCCCCCCCCCCCCCCCCCCCCCCCCCCCCC
/* CCCCCCCCCCCCCCCCCCCCCCCCCCCCCCCCCCCCCCCCCCCCCCCCCCCCCCCCCCCCCCCCCCCCCCCCCCCCC
/* CCCCCCCCCCCCCCCCCCCCCCCCCCCCCCCCCCCCCCCCCCCCCCCCCCCCCCCCCCCCCCCCCCCCCCCCCCCCC
/* PCV:IGS        OL/AL:EOT11A   NONE     YN ORB:CoN CLK:CoN                    
*  2023  5 10  7  0  0.00000000                                                 
PG22   7874.527410 -16112.900771  19990.265413    478.779845                    
PG13   7160.612861  13866.645927 -21691.237967    517.821165                    
PG21 -21114.892222 -16821.188748   -801.621455    153.898897                    
PG07 -19590.870274   -785.806952 -17681.747387    181.857405                    
PG05   6477.487366  21397.847483 -14421.211282   -126.619175                    
PG20   2606.173985  25996.913729  -5300.939109    434.400667                    
PG31  -3798.518250 -19947.556444  16717.764615   -215.797426                    
PG17 -19428.720837  13637.372726  12453.061622    714.221411                    
PG15  16758.699779   8016.128377 -19529.464555     38.183711                    
PG16  -1738.391569 -23332.262534 -12427.455049   -502.282840                    
PG29  25971.445182  -2647.276240   5088.839128   -598.859321                    
PG12  12204.835267  10118.427015  21043.503972   -374.191288                    
PG19 -11788.274036  15012.013307  18111.603102    314.889858                    
PG02    650.329730 -16940.137076 -20047.046039   -597.717695                    
PG25  15706.944895  -2899.463173  20866.571169    441.750538                    
PG01 -21606.252614 -13835.583346   7213.028134    186.477518                    
PG30 -11922.141441  10327.668823 -21268.216492   -518.019156                    
PG24  22157.258814  14847.418415   2142.479747   -183.227403                    
PG27  -3409.209455 -14828.814906 -22003.718535     40.683988                    
PG06  -3612.616983  15644.622370  21196.697108    588.123638                    
PG09 -25503.347131   7152.398502   2188.321133   -162.127466                    
PG03 -13588.320600  -6415.928029  21781.059413   -307.538885                    
PG32  16426.082336 -15639.974562  13839.077624   -472.833744                    
PG26   4190.804868 -26031.067945    478.454752    240.974903                    
PG08 -15321.232063  -9347.142215 -19774.672210   -121.700416                    
PG10  11090.601428 -22041.437132  -9227.551010    -36.300247                    
PG04 -23824.605774  -1769.259870  11739.241191     37.660078                    
PG18  17203.571828  -2565.205437 -20118.341645   -260.029204                    
PG23  14935.676096 -11917.334979 -18377.422971     23.014201                    
PG14 -13462.224737  19659.835045 -11568.350429     51.875648                    
PG11   9599.511791  21598.983401  12161.633366   -191.496272                    
PG28   5200.741558 -15026.182858  21251.076497     76.088883                    
PR09  10925.857077  19131.773099  12803.172242    119.294539                    
PR11   6577.956489 -14377.698286  20032.427969    -52.796169                    
PR22  14092.525380  -4925.933935 -20656.378203     81.763650                    
PR20  19334.882509  12630.474901  10781.588651    -92.658351                    
PR19    419.963958  11096.771716  22957.106799   -232.112557                    
PR13 -10066.653267 -20587.135587 -11217.071594    -34.919461                    
PR01   6865.941396 -17598.495455  17157.614572     57.174467                    
PR08  18603.186586 -17367.664018   1560.088448    -70.741006                    
PR03 -19294.780455   7639.667844  14922.263280     77.511802                    
PR07  19481.130717  -8247.932245 -14172.271819     55.555116                    
PR02  -8970.593731  -6510.313721  23027.129783    -22.900539                    
PR17 -23904.501625  -4519.696921   7613.958985    628.605660                    
PR14 -11744.821394  -2797.867510 -22460.869785     24.614594                    
PR18 -14657.379627   4552.716443  20399.718602     80.725752                    
PR21  23521.887241   3879.003457  -9109.209607     -6.373095                    
PR05  -8254.304815  17424.908671 -16694.723777    112.267718                    
PR15  -6267.778202  15413.933416 -19312.713112     89.361124                    
PR12  -2949.995760 -24905.781869   4640.879262     27.093906                    
PR04 -18849.242656  17149.539546  -1198.187476    186.557549                    
PR24 -20096.755491 -12026.095423 -10085.881443    168.981334                    
PR16   3024.708244  24822.185213  -4938.958587     14.354995                    
PE11 -20330.942135 -20978.709050  -4849.517241   1877.840834                    
PE12  -3471.473159 -20570.315716 -21017.459533   -532.454098                    
PE19  25841.618760 -13405.387120   5371.497895  -2568.874271                    
PE18  18757.225875 -19765.573394 -17694.859795     46.667502                    
PE14 -15680.900824  13574.473106  11021.530216    220.916203                    
PE26  24685.661975   8895.139908 -13696.887884     99.836915                    
PE24  -8427.827895 -22160.807608 -17724.419060    -90.556767                    
PE30  -4643.897153  29227.800519    846.861571   -160.850146                    
PE08  -7697.578516  18792.368627 -21522.766510    -80.695985                    
PE09 -13948.390673 -11999.830398  23192.756509     -9.544583                    
PE02 -15121.195546  19097.014725 -16833.229264     37.260587                    
PE07  14174.339879  12024.968395 -23025.827487    -43.941832                    
PE04   7379.944633 -18889.330426  21576.812675   -119.016811                    
PE05 -27447.805985   1947.269567  10914.396958    -68.865742                    
PE21  16786.447768    945.457381  24358.519509   -528.241871                    
PE25 -16731.582544  -1336.361089 -24378.607622   -604.808257                    
PE27   8890.594440  21576.789138  18213.482448    -45.781740                    
PE31   4158.737683 -29271.741604  -1402.194428   -523.420120                    
PE36 -24765.187109  -9579.994529  13091.509857    -53.882565                    
PE13  19908.874373  21164.401599   5610.475240    -19.118937                    
PE15   3182.860477  20360.743041  21242.776161    -20.672905                    
PE33  15266.587655  -7558.995649 -24206.426257   -444.669305                    
PE34 -15142.648044   7701.645065  24228.430953    -44.629255                    
PE10 -12584.986330 -22505.782695 -14549.462370   -532.628907                    
PC11  -7407.347696  14099.639834  22972.047109    611.150840                    
PC12 -24068.824262   4953.038617  13250.961265    628.672403                    
PC14 -11903.299620  23961.356602  -7795.834806    238.585854                    
PC19   3991.639176 -22653.975191  15849.708960   -908.660704                    
PC20  17036.907016 -22126.267095    292.399131    576.965771                    
PC27  27340.755802    285.323778  -5570.279660    137.943582                    
PC28  23197.244843  11155.447286  10779.703147    101.960918                    
PC22 -11993.912382 -10179.695386  23053.891766   -495.525872                    
PC21 -20817.192820   8049.793876  16752.373183   -913.820368                    
PC29  -4620.463335 -16182.425601 -22271.452643    118.327710                    
PC30  16789.421100 -11505.772765 -19092.948972     -0.189365                    
PC23  15749.949977  21020.274661   9430.755422   -924.870625                    
PC24  -9693.465205  15983.494575 -20737.036993    -72.022153                    
PC26 -17647.076113  -1877.916382 -21542.622168   -118.230360                    
PC25   5695.324053  26366.230931  -7198.145707    123.481170                    
PC32  20754.371562  -8209.112613 -16743.358196   -564.771870                    
PC33  -3917.602126  22690.813272 -15739.285710   -880.154855                    
PC35 -23115.287478 -10745.589409 -11420.553857    630.347954                    
PC34 -15604.237282  12102.667089  19709.868974    167.364293                    
PC36  -4517.102621 -26388.533897   7887.759446   -450.637851                    
PC37  17858.742157   3666.758714  21145.334060   -784.744043                    
PC46   8591.882533 -17254.988300  20165.242217    -53.013772                    
PC45 -15852.165148 -20718.896184  -9880.803650    -95.748736                    
PC44 -27406.358358    590.795245   5302.228589    101.941614                    
PC43   3579.284619  16294.973266  22352.002019     20.648960                    
PC41  11575.159660  10715.379038 -22962.702308   -948.718891                    
PC42 -17701.036858  21525.205818   1130.767220   -698.701429                    
PC06  -6228.182644  23943.367476 -34100.349815   -192.710171                    
PC07 -17564.008806  35774.977572  13530.005741      3.424772                    
PC08  -2123.938234  38328.206502  17643.595406    488.655614                    
PC09   4205.626200  26561.613432 -31921.741669    671.029798                    
PC10  -9511.261077  35655.896265  20227.410088    -54.562591                    
PC13   2602.320386  40749.575170  11195.878997    271.302893                    
PC16 -10028.559985  21894.867968 -34384.213654     83.214390                    
PC38  -7763.463431  34058.572132  23744.256678     77.314112                    
PC39 -15147.921852  20150.554089 -33783.601626     -2.918314                    
PC40 -24574.599420  31553.157069  12959.787487    -22.807002                    
PJ02 -22539.842299  31993.955149 -10849.284661      0.081147                    
PJ03 -28020.472731  22180.523535  27494.976270      3.839870                    
PJ04 -32726.520190  26535.604457   8684.878457     94.468665                    
EOF                                                                             
